OBJECT_NAME,OBJECT_ID,EPOCH,MEAN_MOTION,ECCENTRICITY,INCLINATION,RA_OF_ASC_NODE,ARG_OF_PERICENTER,MEAN_ANOMALY,EPHEMERIS_TYPE,CLASSIFICATION_TYPE,NORAD_CAT_ID,ELEMENT_SET_NO,REV_AT_EPOCH,BSTAR,MEAN_MOTION_DOT,MEAN_MOTION_DDOT
CZ-3B R/B,2026-136B,2026-06-30T19:24:58.311936,2.29482432,.73241256,63.4371,353.3309,171.4545,217.1666,0,U,69571,999,34,.30587275E-3,.223185E-2,.2005925E-5
GUOWANG OBJECT A,2026-137A,2026-06-30T17:46:23.219328,13.89813685,.00126321,49.9989,201.4250,270.2458,89.6993,0,U,69572,999,190,.94836097E-4,-.29E-6,0
GUOWANG OBJECT B,2026-137B,2026-06-30T14:15:04.035744,13.89805334,.00118595,49.9986,201.9806,269.0297,90.9243,0,U,69573,999,189,.76857266E-4,-.51E-6,0
GUOWANG OBJECT C,2026-137C,2026-06-30T14:13:35.313312,13.89816111,.00119141,49.9949,201.9638,270.3993,89.5540,0,U,69574,999,189,.86813322E-4,-.39E-6,0
GUOWANG OBJECT D,2026-137D,2026-06-30T07:17:54.671136,13.89828912,.00111287,49.9947,203.1014,268.2349,91.7274,0,U,69575,999,185,.65477828E-4,-.65E-6,0
GUOWANG OBJECT F,2026-137F,2026-06-30T14:09:18.051264,13.89810938,.00108349,49.9996,201.9637,271.7974,88.1683,0,U,69577,999,189,.656819E-4,-.65E-6,0
GUOWANG OBJECT G,2026-137G,2026-06-30T14:07:54.774624,13.89796246,.00108292,49.9947,201.9422,271.6431,88.3227,0,U,69578,999,189,.75235781E-4,-.53E-6,0
GUOWANG OBJECT H,2026-137H,2026-06-25T11:38:14.756064,13.92076941,.0010122,49.9967,222.2731,259.8752,100.1006,0,U,69579,999,118,.1427E-3,.37E-6,0
GUOWANG OBJECT J,2026-137J,2026-06-27T06:41:01.268160,13.91997107,.0011832,49.9961,215.0979,257.3150,102.6427,0,U,69580,999,143,.13174E-3,.22E-6,0
CZ-12 R/B,2026-137K,2026-06-28T06:32:44.259072,14.11691666,.00774715,49.9862,209.6633,151.7780,208.7358,0,U,69581,999,157,.27092392E-4,-.104E-5,0
CENTISPACE-1 GROUP 05 OBJECT A,2026-138A,2026-06-30T15:06:31.900896,14.15474308,.00103292,55.1404,231.5287,310.3759,49.6313,0,U,69582,999,192,-.12101959E-3,-.391E-5,0
CENTISPACE-1 GROUP 05 OBJECT B,2026-138B,2026-06-30T15:04:01.951104,14.15655432,.00092883,55.1404,231.5177,310.3007,49.7154,0,U,69583,999,192,-.12475225E-3,-.399E-5,0
CENTISPACE-1 GROUP 05 OBJECT C,2026-138C,2026-06-30T15:02:51.523872,14.15739447,.00092225,55.1407,231.5218,312.1039,47.9150,0,U,69584,999,192,-.11513101E-3,-.381E-5,0
CENTISPACE-1 GROUP 05 OBJECT D,2026-138D,2026-06-30T15:00:35.778240,14.15926654,.00087798,55.1409,231.5041,310.9148,49.1066,0,U,69585,999,192,-.13599169E-3,-.423E-5,0
CENTISPACE-1 GROUP 05 OBJECT E,2026-138E,2026-06-30T14:59:41.768736,14.15993133,.00084959,55.1406,231.5080,311.2087,48.8155,0,U,69586,999,192,-.11674878E-3,-.385E-5,0
CENTISPACE-1 GROUP 05 OBJECT F,2026-138F,2026-06-30T20:05:28.432032,14.15916162,.00083955,55.1409,230.7299,316.2606,43.7703,0,U,69587,999,195,-.12864326E-3,-.408E-5,0
CENTISPACE-1 GROUP 05 OBJECT G,2026-138G,2026-06-30T14:58:12.844992,14.16080891,.00076477,55.1408,231.5010,315.2101,44.8255,0,U,69588,999,192,-.11452742E-3,-.381E-5,0
SPACEMOBILE-009,2026-139B,2026-06-30T13:16:37.903872,15.12678049,.00044217,52.9925,201.8899,14.5316,345.5802,0,U,69590,999,200,.30674696E-4,.242E-5,0
SPACEMOBILE-010,2026-139C,2026-06-30T11:43:36.404256,15.12509113,.00042823,52.9931,202.2012,4.5231,355.5798,0,U,69591,999,200,.29738151E-4,.224E-5,0
KUIPER-00481,2026-140C,2026-06-30T19:58:18.217920,15.37635873,.00103964,51.8792,332.6655,220.9245,139.0963,0,U,69594,999,333,.95398367E-3,.3563E-3,0
KUIPER-00490,2026-140D,2026-06-30T20:11:51.387936,15.37574259,.00059088,51.8784,332.7240,281.3964,78.6359,0,U,69595,999,333,.97959681E-3,.36486E-3,0
